NORAD_CAT_ID,OBJECT_NAME,OBJECT_TYPE,EPOCH,MEAN_MOTION,ECCENTRICITY,INCLINATION,RA_OF_ASC_NODE,ARG_OF_PERICENTER,MEAN_ANOMALY,BSTAR,MEAN_MOTION_DOT,MEAN_MOTION_DDOT,TLE_LINE0,TLE_LINE1,TLE_LINE2,SEMIMAJOR_AXIS,PERIOD,APOGEE,PERIGEE,DECAYED
53275.0,STARLINK-4179,PAYLOAD,2024-02-23 21:19:50,15.08842906,0.0001328,53.2171,287.6596,90.0161,270.0983,5.549e-05,5.95e-06,0.0,0 STARLINK-4179,1 53275U 22086AK  24054.88878253  .00000595  00000-0  55490-4 0  9990,2 53275  53.2171 287.6596 0001328  90.0161 270.0983 15.08842906 88757,6917.872,95.437,540.655,538.818,0.0
53275.0,STARLINK-4179,PAYLOAD,2024-02-24 00:30:36,15.08846713,0.0001444,53.2179,287.065,99.1534,260.9622,0.00010028,1.309e-05,0.0,0 STARLINK-4179,1 53275U 22086AK  24055.02125908  .00001309  00000-0  10028-3 0  9990,2 53275  53.2179 287.0650 0001444  99.1534 260.9622 15.08846713 88605,6917.86,95.437,540.724,538.726,0.0
53275.0,STARLINK-4179,PAYLOAD,2024-02-24 08:27:32,15.08841163,0.0001444,53.2177,285.5788,89.6254,270.4903,6.3736e-05,7.27e-06,0.0,0 STARLINK-4179,1 53275U 22086AK  24055.35246456  .00000727  00000-0  63736-4 0  9996,2 53275  53.2177 285.5788 0001444  89.6254 270.4903 15.08841163 88658,6917.877,95.437,540.741,538.743,0.0
53275.0,STARLINK-4179,PAYLOAD,2024-02-24 21:10:38,15.08839374,0.0001409,53.2176,283.2018,87.6119,272.5034,0.00012018,1.625e-05,0.0,0 STARLINK-4179,1 53275U 22086AK  24055.88238572  .00001625  00000-0  12018-3 0  9998,2 53275  53.2176 283.2018 0001409  87.6119 272.5034 15.08839374 88904,6917.882,95.438,540.722,538.773,0.0
53275.0,STARLINK-4179,PAYLOAD,2024-02-25 14:39:53,15.0882865,0.0001496,53.2177,279.9295,83.2559,276.8603,0.00024625,3.632e-05,0.0,0 STARLINK-4179,1 53275U 22086AK  24056.61103149  .00003632  00000-0  24625-3 0  9998,2 53275  53.2177 279.9295 0001496  83.2559 276.8603 15.08828650 89017,6917.915,95.438,540.815,538.745,0.0
53275.0,STARLINK-4179,PAYLOAD,2024-02-25 19:26:01,15.0884545,0.0001227,53.2166,279.0378,88.1704,271.9429,0.00011996,1.622e-05,0.0,0 STARLINK-4179,1 53275U 22086AK  24056.80974006  .00001622  00000-0  11996-3 0  9991,2 53275  53.2166 279.0378 0001227  88.1704 271.9429 15.08845450 88878,6917.864,95.437,540.578,538.88,0.0
53275.0,STARLINK-4179,PAYLOAD,2024-02-25 21:01:24,15.08849111,0.0001291,53.2165,278.7404,89.8196,270.2945,6.3429e-05,7.22e-06,0.0,0 STARLINK-4179,1 53275U 22086AK  24056.87597966  .00000722  00000-0  63429-4 0  9993,2 53275  53.2165 278.7404 0001291  89.8196 270.2945 15.08849111 89051,6917.853,95.437,540.611,538.824,0.0
53275.0,STARLINK-4179,PAYLOAD,2024-02-26 14:30:39,15.08835311,0.0001118,53.2148,275.4694,75.1092,285.0024,3.0358e-05,1.95e-06,0.0,0 STARLINK-4179,1 53275U 22086AK  24057.60462929  .00000195  00000-0  30358-4 0  9994,2 53275  53.2148 275.4694 0001118  75.1092 285.0024 15.08835311 89169,6917.895,95.438,540.533,538.986,0.0
53275.0,STARLINK-4179,PAYLOAD,2024-02-26 19:16:49,15.08839433,0.0001639,53.2167,274.5768,106.6086,253.5086,5.1145e-05,5.26e-06,0.0,0 STARLINK-4179,1 53275U 22086AK  24057.80334528  .00000526  00000-0  51145-4 0  9994,2 53275  53.2167 274.5768 0001639 106.6086 253.5086 15.08839433 89025,6917.882,95.438,540.881,538.613,0.0
53275.0,STARLINK-4179,PAYLOAD,2024-02-26 20:52:12,15.08838085,0.0001485,53.2166,274.2823,83.5886,276.5276,5.4179e-05,5.74e-06,0.0,0 STARLINK-4179,1 53275U 22086AK  24057.86958745  .00000574  00000-0  54179-4 0  9996,2 53275  53.2166 274.2823 0001485  83.5886 276.5276 15.08838085 89201,6917.886,95.438,540.779,538.724,0.0
53275.0,STARLINK-4179,PAYLOAD,2024-02-27 00:02:58,15.08840612,0.0001426,53.2155,273.6858,79.0036,281.1117,8.2145e-05,1.02e-05,0.0,0 STARLINK-4179,1 53275U 22086AK  24058.00206545  .00001020  00000-0  82145-4 0  9998,2 53275  53.2155 273.6858 0001426  79.0036 281.1117 15.08840612 89229,6917.879,95.438,540.73,538.757,0.0
53275.0,STARLINK-4179,PAYLOAD,2024-02-27 20:42:59,15.08840861,0.0001445,53.2158,269.8193,90.8576,269.2582,4.0442e-05,3.56e-06,0.0,0 STARLINK-4179,1 53275U 22086AK  24058.86318647  .00000356  00000-0  40442-4 0  9994,2 53275  53.2158 269.8193 0001445  90.8576 269.2582 15.08840861 89186,6917.878,95.438,540.742,538.743,0.0
53275.0,STARLINK-4179,PAYLOAD,2024-02-28 14:12:14,15.0883664,0.0001397,53.2159,266.5476,93.4152,266.7,6.7998e-05,7.94e-06,0.0,0 STARLINK-4179,1 53275U 22086AK  24059.59182906  .00000794  00000-0  67998-4 0  9993,2 53275  53.2159 266.5476 0001397  93.4152 266.7000 15.08836640 89468,6917.891,95.438,540.722,538.789,0.0
53275.0,STARLINK-4179,PAYLOAD,2024-02-28 20:33:47,15.088317,0.0001361,53.2162,265.359,92.0353,268.0795,1.7742e-05,-6e-08,0.0,0 STARLINK-4179,1 53275U 22086AK  24059.85679445 -.00000006  00000-0  17742-4 0  9990,2 53275  53.2162 265.3590 0001361  92.0353 268.0795 15.08831700 89339,6917.906,95.438,540.712,538.829,0.0
53275.0,STARLINK-4179,PAYLOAD,2024-02-29 06:06:06,15.08831977,0.0001335,53.2163,263.5754,91.0546,269.0599,8.1929e-06,-1.58e-06,0.0,0 STARLINK-4179,1 53275U 22086AK  24060.25423667 -.00000158  00000-0  81929-5 0  9996,2 53275  53.2163 263.5754 0001335  91.0546 269.0599 15.08831977 89560,6917.905,95.438,540.693,538.846,0.0
53275.0,STARLINK-4179,PAYLOAD,2024-02-29 20:24:33,15.08840017,0.0001251,53.216,260.8989,88.9599,271.1536,5.5063e-05,5.89e-06,0.0,0 STARLINK-4179,1 53275U 22086AK  24060.85039197  .00000589  00000-0  55063-4 0  9999,2 53275  53.2160 260.8989 0001251  88.9599 271.1536 15.08840017 89488,6917.88,95.438,540.611,538.88,0.0
53275.0,STARLINK-4179,PAYLOAD,2024-03-01 05:56:52,15.08840772,0.0001242,53.2158,259.1146,87.5163,272.5971,7.5708e-05,9.17e-06,0.0,0 STARLINK-4179,1 53275U 22086AK  24061.24783155  .00000917  00000-0  75708-4 0  9996,2 53275  53.2158 259.1146 0001242  87.5163 272.5971 15.08840772 89715,6917.878,95.438,540.602,538.884,0.0
53275.0,STARLINK-4179,PAYLOAD,2024-03-01 20:15:20,15.08842225,0.000124,53.216,256.4385,88.4332,271.6802,0.00016167,2.286e-05,0.0,0 STARLINK-4179,1 53275U 22086AK  24061.84398902  .00002286  00000-0  16167-3 0  9998,2 53275  53.2160 256.4385 0001240  88.4332 271.6802 15.08842225 89807,6917.874,95.437,540.596,538.881,0.0
53275.0,STARLINK-4179,PAYLOAD,2024-03-02 20:06:07,15.08844358,0.0001281,53.2164,251.9791,89.7727,270.3412,7.8406e-05,9.6e-06,0.0,0 STARLINK-4179,1 53275U 22086AK  24062.83759052  .00000960  00000-0  78406-4 0  9997,2 53275  53.2164 251.9791 0001281  89.7727 270.3412 15.08844358 89788,6917.867,95.437,540.618,538.846,0.0
53275.0,STARLINK-4179,PAYLOAD,2024-03-03 11:59:59,15.08842487,0.0001334,53.216,249.0055,83.5433,276.5711,2.8467e-05,1.65e-06,0.0,0 STARLINK-4179,1 53275U 22086AK  24063.49999238  .00000165  00000-0  28467-4 0  9991,2 53275  53.2160 249.0055 0001334  83.5433 276.5711 15.08842487 90053,6917.873,95.437,540.661,538.815,0.0
53275.0,STARLINK-4179,PAYLOAD,2024-03-03 19:56:54,15.08845022,0.0001434,53.2166,247.5196,81.3355,278.78,3.0559e-05,1.98e-06,0.0,0 STARLINK-4179,1 53275U 22086AK  24063.83119014  .00000198  00000-0  30559-4 0  9996,2 53275  53.2166 247.5196 0001434  81.3355 278.7800 15.08845022 90105,6917.865,95.437,540.722,538.738,0.0
53275.0,STARLINK-4179,PAYLOAD,2024-03-04 11:50:45,15.08846282,0.0001393,53.2165,244.5454,82.3321,277.783,8.2438e-05,1.025e-05,0.0,0 STARLINK-4179,1 53275U 22086AK  24064.49358542  .00001025  00000-0  82438-4 0  9993,2 53275  53.2165 244.5454 0001393  82.3321 277.7830 15.08846282 90039,6917.861,95.437,540.69,538.763,0.0
53275.0,STARLINK-4179,PAYLOAD,2024-03-04 18:12:17,15.08850296,0.000143,53.2158,243.3558,90.5287,269.5869,7.5582e-05,9.15e-06,0.0,0 STARLINK-4179,1 53275U 22086AK  24064.75854161  .00000915  00000-0  75582-4 0  9999,2 53275  53.2158 243.3558 0001430  90.5287 269.5869 15.08850296 90241,6917.849,95.437,540.703,538.725,0.0
53275.0,STARLINK-4179,PAYLOAD,2024-03-05 11:41:33,15.08837707,0.0001458,53.2157,240.0839,92.6183,267.4976,3.81e-05,3.18e-06,0.0,0 STARLINK-4179,1 53275U 22086AK  24065.48719002  .00000318  00000-0  38100-4 0  9996,2 53275  53.2157 240.0839 0001458  92.6183 267.4976 15.08837707 90354,6917.887,95.438,540.761,538.744,0.0
53275.0,STARLINK-4179,PAYLOAD,2024-03-05 18:03:06,15.08835272,0.0001393,53.2165,238.894,88.7427,271.3725,-2.4846e-05,-6.83e-06,0.0,0 STARLINK-4179,1 53275U 22086AK  24065.75215468 -.00000683  00000-0 -24846-4 0  9992,2 53275  53.2165 238.8940 0001393  88.7427 271.3725 15.08835272 90223,6917.895,95.438,540.724,538.796,0.0
53275.0,STARLINK-4179,PAYLOAD,2024-03-06 11:32:21,15.08824577,0.00013,53.2165,235.6227,92.8845,267.2296,-0.00011311,-2.087e-05,0.0,0 STARLINK-4179,1 53275U 22086AK  24066.48080922 -.00002087  00000-0 -11311-3 0  9990,2 53275  53.2165 235.6227 0001300  92.8845 267.2296 15.08824577 90339,6917.928,95.439,540.692,538.893,0.0
53275.0,STARLINK-4179,PAYLOAD,2024-03-06 17:53:54,15.08832447,0.0001467,53.2177,234.4351,96.9924,263.1235,-4.3861e-05,-9.86e-06,0.0,0 STARLINK-4179,1 53275U 22086AK  24066.74576493 -.00000986  00000-0 -43861-4 0  9994,2 53275  53.2177 234.4351 0001467  96.9924 263.1235 15.08832447 90371,6917.903,95.438,540.783,538.754,0.0
53275.0,STARLINK-4179,PAYLOAD,2024-03-07 14:33:54,15.08836147,0.0001344,53.2173,230.5684,93.698,266.4166,0.00020521,2.979e-05,0.0,0 STARLINK-4179,1 53275U 22086AK  24067.60688311  .00002979  00000-0  20521-3 0  9992,2 53275  53.2173 230.5684 0001344  93.6980 266.4166 15.08836147 90676,6917.892,95.438,540.687,538.827,0.0
53275.0,STARLINK-4179,PAYLOAD,2024-03-08 11:13:55,15.08851449,0.0001983,53.2159,226.7012,85.0252,275.0966,0.00030707,4.604e-05,0.0,0 STARLINK-4179,1 53275U 22086AK  24068.46800261  .00004604  00000-0  30707-3 0  9991,2 53275  53.2159 226.7012 0001983  85.0252 275.0966 15.08851449 90809,6917.845,95.437,541.082,538.339,0.0
53275.0,STARLINK-4179,PAYLOAD,2024-03-08 17:35:27,15.08848322,0.000162,53.2159,225.5125,91.2527,268.865,0.0001949,2.816e-05,0.0,0 STARLINK-4179,1 53275U 22086AK  24068.73296177  .00002816  00000-0  19490-3 0  9995,2 53275  53.2159 225.5125 0001620  91.2527 268.8650 15.08848322 90674,6917.855,95.437,540.841,538.599,0.0
